*******************************************************************************
 Revised: June 21, 2016                 Mars                            499 / 4
 
 PHYSICAL DATA (updated 2019-Oct-29):
  Vol. mean radius (km) = 3389.92+-0.04   Density (g/cm^3)      =  3.933(5+-4)
  Mass x10^23 (kg)      =    6.4171       Flattening, f         =  1/169.779
  Volume (x10^10 km^3)  =   16.318        Equatorial radius (km)=  3396.19
  Sidereal rot. period  =   24.622962 hr  Sid. rot. rate, rad/s =  0.0000708822 
  Mean solar day (sol)  =   88775.24415 s Polar gravity m/s^2   =  3.758
  Core radius (km)      = ~1700           Equ. gravity  m/s^2   =  3.71
  Geometric Albedo      =    0.150                                              

  GM (km^3/s^2)         = 42828.375214    Mass ratio (Sun/Mars) = 3098703.59
  GM 1-sigma (km^3/s^2) = +- 0.00028      Mass of atmosphere, kg= ~ 2.5 x 10^16
  Mean temperature (K)  =  210            Atmos. pressure (bar) =    0.0056 
  Obliquity to orbit    =   25.19 deg     Max. angular diam.    =  17.9"
  Mean sidereal orb per =    1.88081578 y Visual mag. V(1,0)    =  -1.52
  Mean sidereal orb per =  686.98 d       Orbital speed,  km/s  =  24.13
  Hill's sphere rad. Rp =  319.8          Escape speed, km/s    =   5.027
                                 Perihelion  Aphelion    Mean
  Solar Constant (W/m^2)         717         493         589
  Maximum Planetary IR (W/m^2)   470         315         390
  Minimum Planetary IR (W/m^2)    30          30          30
*******************************************************************************


*******************************************************************************
Ephemeris / WWW_USER Thu May  5 15:42:15 2022 Pasadena, USA      / Horizons
*******************************************************************************
Target body name: Mars (499)                      {source: mar097}
Center body name: Sun (10)                        {source: mar097}
Center-site name: BODY CENTER
*******************************************************************************
Start time      : A.D. 2017-Oct-14 00:00:00.0000 TDB
Stop  time      : A.D. 2018-Jan-02 00:00:00.0000 TDB
Step-size       : 60 minutes
*******************************************************************************
Center geodetic : 0.00000000,0.00000000,0.0000000 {E-lon(deg),Lat(deg),Alt(km)}
Center cylindric: 0.00000000,0.00000000,0.0000000 {E-lon(deg),Dxy(km),Dz(km)}
Center radii    : 696000.0 x 696000.0 x 696000.0 k{Equator, meridian, pole}    
Output units    : KM-S
Output type     : GEOMETRIC cartesian states
Output format   : 3 (position, velocity, LT, range, range-rate)
Reference frame : Ecliptic of J2000.0
*******************************************************************************
            JDTDB,            Calendar Date (TDB),        delta-T,                      X,                      Y,                      Z,                     VX,                     VY,                     VZ,                     LT,                     RG,                     RR,
******************************************************************************************************************************************************************************************************************************************************************************************
$$SOE
2458065.416666667, A.D. 2017-Nov-07 22:00:00.0000,      69.182615, -2.444207670881061E+08,  4.446825138293403E+07,  6.930377456827154E+06, -3.430995606397076E+00, -2.176794414985958E+01, -3.719534246460556E-01,  8.290055438889540E+02,  2.485296096980964E+08, -5.309371883035487E-01,
2458065.458333333, A.D. 2017-Nov-07 23:00:00.0000,      69.182616, -2.444331049792155E+08,  4.438988429343669E+07,  6.929038036271445E+06, -3.423388246705723E+00, -2.176932739273735E+01, -3.721691018163531E-01,  8.289991640118114E+02,  2.485276970590461E+08, -5.316400580050407E-01,
2458065.500000000, A.D. 2017-Nov-08 00:00:00.0000,      69.182616, -2.444454154827870E+08,  4.431151222860000E+07,  6.927697839326745E+06, -3.415780307909110E+00, -2.177070822423430E+01, -3.723847515493812E-01,  8.289927756945374E+02,  2.485257818897080E+08, -5.323429029029122E-01,
2458065.541666667, A.D. 2017-Nov-08 01:00:00.0000,      69.182617, -2.444576985967481E+08,  4.423313519713546E+07,  6.926356866098965E+06, -3.408171798945117E+00, -2.177208662861410E+01, -3.726003689942896E-01,  8.289863789374856E+02,  2.485238641901882E+08, -5.330457118495726E-01,
2458065.583333333, A.D. 2017-Nov-08 02:00:00.0000,      69.182618, -2.444699543190773E+08,  4.415475320779150E+07,  6.925015116719224E+06, -3.400562737912090E+00, -2.177346260252859E+01, -3.728159456101983E-01,  8.289799737411942E+02,  2.485219439606480E+08, -5.337484668046513E-01,
2458065.625000000, A.D. 2017-Nov-08 03:00:00.0000,      69.182618, -2.444821826478156E+08,  4.407636626929809E+07,  6.923672591346504E+06, -3.392953138547735E+00, -2.177483615921081E+01, -3.730314758466484E-01,  8.289735601063904E+02,  2.485200212013055E+08, -5.344511570392408E-01,
2458065.666666667, A.D. 2017-Nov-08 04:00:00.0000,      69.182619, -2.444943835810297E+08,  4.399797439032351E+07,  6.922329290147627E+06, -3.385343001143791E+00, -2.177620731701485E+01, -3.732469608490661E-01,  8.289671380338434E+02,  2.485180959123912E+08, -5.351537861203437E-01,
2458065.708333333, A.D. 2017-Nov-08 05:00:00.0000,      69.182620, -2.445065571167649E+08,  4.391957757948054E+07,  6.920985213275272E+06, -3.377732314534521E+00, -2.177757608692029E+01, -3.734624068245571E-01,  8.289607075242117E+02,  2.485161680941025E+08, -5.358563676974931E-01,
2458065.750000000, A.D. 2017-Nov-08 06:00:00.0000,      69.182620, -2.445187032530174E+08,  4.384117584536453E+07,  6.919640360856568E+06, -3.370121064233981E+00, -2.177894246741301E+01, -3.736778208791636E-01,  8.289542685779726E+02,  2.485142377465826E+08, -5.365589164957416E-01,
2458065.791666667, A.D. 2017-Nov-08 07:00:00.0000,      69.182621, -2.445308219877387E+08,  4.376276919659705E+07,  6.918294732997846E+06, -3.362509240763711E+00, -2.178030644622497E+01, -3.738932071405472E-01,  8.289478211954643E+02,  2.485123048699327E+08, -5.372614403440715E-01,
2458065.833333333, A.D. 2017-Nov-08 08:00:00.0000,      69.182622, -2.445429133188625E+08,  4.368435764185532E+07,  6.916948329799037E+06, -3.354896844344669E+00, -2.178166800562042E+01, -3.741085648095197E-01,  8.289413653769919E+02,  2.485103694642445E+08, -5.379639364510865E-01,
2458065.875000000, A.D. 2017-Nov-08 09:00:00.0000,      69.182622, -2.445549772443465E+08,  4.360594118987553E+07,  6.915601151373686E+06, -3.347283888442377E+00, -2.178302713312280E+01, -3.743238870569137E-01,  8.289349011229683E+02,  2.485084315296416E+08, -5.386663897734719E-01,
2458065.916666667, A.D. 2017-Nov-08 10:00:00.0000,      69.182623, -2.445670137622098E+08,  4.352751984941227E+07,  6.914253197864715E+06, -3.339670391034828E+00, -2.178438383158758E+01, -3.745391657411510E-01,  8.289284284340141E+02,  2.485064910663102E+08, -5.393687834893225E-01,
2458065.958333333, A.D. 2017-Nov-08 11:00:00.0000,      69.182624, -2.445790228705243E+08,  4.344909362918332E+07,  6.912904469437059E+06, -3.332056361822320E+00, -2.178573811743169E+01, -3.747543974128540E-01,  8.289219473108963E+02,  2.485045480744801E+08, -5.400711114137526E-01,
2458066.000000000, A.D. 2017-Nov-08 12:00:00.0000,      69.182624, -2.445910045673720E+08,  4.337066253784013E+07,  6.911554966255974E+06, -3.324441796416377E+00, -2.178709000810668E+01, -3.749695854011250E-01,  8.289154577543699E+02,  2.485026025543777E+08, -5.407733815691974E-01,
2458066.041666667, A.D. 2017-Nov-08 13:00:00.0000,      69.182625, -2.446029588507991E+08,  4.329222658399048E+07,  6.910204688466169E+06, -3.316826681328779E+00, -2.178843950998766E+01, -3.751847367700414E-01,  8.289089597650384E+02,  2.485006545061840E+08, -5.414756090848898E-01,
2458066.083333333, A.D. 2017-Nov-08 14:00:00.0000,      69.182626, -2.446148857188018E+08,  4.321378577624040E+07,  6.908853636187408E+06, -3.309211003201894E+00, -2.178978661781579E+01, -3.753998578841005E-01,  8.289024533433314E+02,  2.484987039300276E+08, -5.421778069142488E-01,
2458066.125000000, A.D. 2017-Nov-08 15:00:00.0000,      69.182627, -2.446267851693377E+08,  4.313534012323330E+07,  6.907501809522193E+06, -3.301594755167472E+00, -2.179113131634518E+01, -3.756149514645548E-01,  8.288959384895652E+02,  2.484967508260036E+08, -5.428799798006554E-01,
2458066.166666667, A.D. 2017-Nov-08 16:00:00.0000,      69.182627, -2.446386572003607E+08,  4.305688963367486E+07,  6.906149208573410E+06, -3.293977942334109E+00, -2.179247358841547E+01, -3.758300144131992E-01,  8.288894152040729E+02,  2.484947951942116E+08, -5.435821202290496E-01,
2458066.208333333, A.D. 2017-Nov-08 17:00:00.0000,      69.182628, -2.446505018098640E+08,  4.297843431631860E+07,  6.904795833464561E+06, -3.286360580776715E+00, -2.179381342613824E+01, -3.760450389071046E-01,  8.288828834873394E+02,  2.484928370347971E+08, -5.442842113839530E-01,
2458066.250000000, A.D. 2017-Nov-08 18:00:00.0000,      69.182629, -2.446623189959047E+08,  4.289997417991871E+07,  6.903441684348548E+06, -3.278742687313112E+00, -2.179515083779836E+01, -3.762600176544995E-01,  8.288763433400557E+02,  2.484908763479672E+08, -5.449862385308869E-01,
2458066.291666667, A.D. 2017-Nov-08 19:00:00.0000,      69.182629, -2.446741087565806E+08,  4.282150923317529E+07,  6.902086761393746E+06, -3.271124266524736E+00, -2.179648584216103E+01, -3.764749497758659E-01,  8.288697947630094E+02,  2.484889131339580E+08, -5.456882009486456E-01,
2458066.333333333, A.D. 2017-Nov-08 20:00:00.0000,      69.182630, -2.446858710899810E+08,  4.274303948472650E+07,  6.900731064760067E+06, -3.263505309873664E+00, -2.179781845332656E+01, -3.766898403959233E-01,  8.288632377569166E+02,  2.484869473929844E+08, -5.463901101690388E-01,
